     2.10           G: GLONASS NAV DATA                     RINEX VERSION / TYPE
teqc  2015Jun23                         20220714 01:25:45UTCPGM / RUN BY / DATE
Linux 2.4.21-27.ELsmp|Opteron|gcc -static|Linux x86_64|=+   COMMENT
  2022     7     3    1.396983861923D-09                    CORR TO SYSTEM TIME
                                                            END OF HEADER
 4 22  7  4  0 15  0.0 1.493711024523D-04 9.094947017729D-13 0.000000000000D+00
   -7.205241699219D+03-3.005833625793D+00 1.862645149231D-09 0.000000000000D+00
    8.949638183594D+03-8.504219055176D-01 0.000000000000D+00 6.000000000000D+00
   -2.274484472656D+04 6.160278320312D-01 1.862645149231D-09 0.000000000000D+00
 5 22  7  4  0 15  0.0 9.564869105816D-05 0.000000000000D+00 0.000000000000D+00
    1.095503955078D+04-2.502146720886D+00 2.793967723846D-09 0.000000000000D+00
    1.262159277344D+04-8.505201339722D-01 1.862645149231D-09 1.000000000000D+00
   -1.924899121094D+04-1.982187271118D+00 0.000000000000D+00 0.000000000000D+00
14 22  7  4  0 15  0.0 2.499204128981D-05-0.000000000000D+00 0.000000000000D+00
   -1.978559179688D+04 1.006285667419D+00 9.313225746155D-10 0.000000000000D+00
    1.303934082031D+04-8.161907196045D-01-9.313225746155D-10-7.000000000000D+00
   -9.398913085938D+03-3.246673583984D+00 1.862645149231D-09 0.000000000000D+00
15 22  7  4  0 15  0.0 9.488966315985D-05-0.000000000000D+00 0.000000000000D+00
   -1.449186425781D+04-6.850233078003D-01 0.000000000000D+00 0.000000000000D+00
    1.941531152344D+04 8.605718612671D-01-9.313225746155D-10 0.000000000000D+00
    7.994842773438D+03-3.342136383057D+00-0.000000000000D+00 0.000000000000D+00
18 22  7  4  0 15  0.0 1.223804429173D-04 9.094947017729D-13 0.000000000000D+00
   -2.551132812500D+03-3.179454803467D-01 0.000000000000D+00 0.000000000000D+00
    1.995431884766D+04-2.131761550903D+00-0.000000000000D+00-3.000000000000D+00
    1.566053759766D+04 2.669787406921D+00-1.862645149231D-09 0.000000000000D+00
19 22  7  4  0 15  0.0-1.949872821569D-04-9.094947017729D-13 0.000000000000D+00
    4.658210449219D+03 2.206563949585D-01 1.862645149231D-09 0.000000000000D+00
    2.505858886719D+04-2.012882232666D-01 9.313225746155D-10 3.000000000000D+00
    1.105015136719D+03 3.608641624451D+00-9.313225746155D-10 0.000000000000D+00
20 22  7  4  0 15  0.0-7.389113306999D-05-9.094947017729D-13 4.500000000000D+02
    1.098958398438D+04 6.464338302612D-01 2.793967723846D-09 0.000000000000D+00
    1.481830761719D+04 2.333438873291D+00 1.862645149231D-09 2.000000000000D+00
   -1.759646191406D+04 2.372041702271D+00-0.000000000000D+00 0.000000000000D+00
 5 22  7  4  0 45  0.0 9.564869105816D-05 0.000000000000D+00 1.800000000000D+03
    5.987734863281D+03-2.974961280823D+00 2.793967723846D-09 0.000000000000D+00
    1.135511621094D+04-5.287685394287D-01 9.313225746155D-10 1.000000000000D+00
   -2.202532812500D+04-1.082602500916D+00 9.313225746155D-10 0.000000000000D+00
14 22  7  4  0 45  0.0 2.499204128981D-05-0.000000000000D+00 1.800000000000D+03
   -1.764279150391D+04 1.330920219421D+00 9.313225746155D-10 0.000000000000D+00
    1.092385742188D+04-1.536683082581D+00-9.313225746155D-10-7.000000000000D+00
   -1.480314892578D+04-2.718947410583D+00 1.862645149231D-09 0.000000000000D+00
15 22  7  4  0 45  0.0 9.488873183727D-05-0.000000000000D+00 1.800000000000D+03
   -1.511518994141D+04-2.957344055176D-02 0.000000000000D+00 0.000000000000D+00
    2.047077734375D+04 2.773551940918D-01-9.313225746155D-10 0.000000000000D+00
    1.747687011719D+03-3.554101943970D+00 0.000000000000D+00 0.000000000000D+00
18 22  7  4  0 45  0.0 1.223823055625D-04 9.094947017729D-13 1.800000000000D+03
   -3.582798828125D+03-8.424091339111D-01-0.000000000000D+00 0.000000000000D+00
    1.566761767578D+04-2.583974838257D+00-0.000000000000D+00-3.000000000000D+00
    1.979772851562D+04 1.897315025330D+00-1.862645149231D-09 0.000000000000D+00
19 22  7  4  0 45  0.0-1.949900761247D-04-9.094947017729D-13 1.800000000000D+03
    4.794772460938D+03-1.069211959839D-01 1.862645149231D-09 0.000000000000D+00
    2.391427343750D+04-1.049402236938D+00 0.000000000000D+00 3.000000000000D+00
    7.473947753906D+03 3.421998023987D+00-9.313225746155D-10 0.000000000000D+00
20 22  7  4  0 45  0.0-7.389299571514D-05-9.094947017729D-13 1.800000000000D+03
    1.230186865234D+04 7.710914611816D-01 2.793967723846D-09 0.000000000000D+00
    1.836211230469D+04 1.578619956970D+00 9.313225746155D-10 2.000000000000D+00
   -1.270064501953D+04 3.032426834106D+00-0.000000000000D+00 0.000000000000D+00
15 22  7  4  1 15  0.0 9.488780051470D-05-9.094947017729D-13 3.600000000000D+03
   -1.470330322266D+04 4.520292282104D-01 0.000000000000D+00 0.000000000000D+00
    2.031262255859D+04-4.734344482422D-01-9.313225746155D-10 0.000000000000D+00
   -4.634585937500D+03-3.491223335266D+00 9.313225746155D-10 0.000000000000D+00
 5 22  7  4  1 15  0.0 9.564962238073D-05 0.000000000000D+00 3.600000000000D+03
    4.149726562500D+02-3.166221618652D+00 2.793967723846D-09 0.000000000000D+00
    1.079040283203D+04-8.708953857422D-02 0.000000000000D+00 1.000000000000D+00
   -2.309609326172D+04-9.945392608643D-02 9.313225746155D-10 0.000000000000D+00
14 22  7  4  1 15  0.0 2.499110996723D-05-0.000000000000D+00 3.600000000000D+03
   -1.515448095703D+04 1.390089988708D+00 0.000000000000D+00 0.000000000000D+00
    7.532959960938D+03-2.214461326599D+00-0.000000000000D+00-7.000000000000D+00
   -1.906037548828D+04-1.980526924133D+00 2.793967723846D-09 0.000000000000D+00
18 22  7  4  1 15  0.0 1.223841682076D-04 9.094947017729D-13 3.600000000000D+03
   -5.601292480469D+03-1.395734786987D+00-9.313225746155D-10 0.000000000000D+00
    1.083278076172D+04-2.736503601074D+00-9.313225746155D-10-3.000000000000D+00
    2.240300830078D+04 9.787759780884D-01-9.313225746155D-10 0.000000000000D+00
19 22  7  4  1 15  0.0-1.949928700924D-04-9.094947017729D-13 3.600000000000D+03
    4.155952636719D+03-6.288137435913D-01 9.313225746155D-10 0.000000000000D+00
    2.138666601562D+04-1.721964836121D+00-0.000000000000D+00 3.000000000000D+00
    1.326501416016D+04 2.970722198486D+00-1.862645149231D-09 0.000000000000D+00
20 22  7  4  1 15  0.0-7.389485836029D-05-9.094947017729D-13 3.600000000000D+03
    1.360921191406D+04 6.368074417114D-01 2.793967723846D-09 0.000000000000D+00
    2.044408056641D+04 7.287845611572D-01 0.000000000000D+00 2.000000000000D+00
   -6.820905273438D+03 3.458125114441D+00-9.313225746155D-10 0.000000000000D+00
 4 22  7  4  1 15  0.0 1.493738964200D-04 9.094947017729D-13 3.630000000000D+03
   -1.721880273438D+04-2.362199783325D+00 0.000000000000D+00 0.000000000000D+00
    7.619332031250D+03 6.951332092285D-02-9.313225746155D-10 6.000000000000D+00
   -1.718270703125D+04 2.393020629883D+00 2.793967723846D-09 0.000000000000D+00
19 22  7  4  1 45  0.0-1.949947327375D-04-9.094947017729D-13 5.400000000000D+03
    2.467175292969D+03-1.256397247314D+00-0.000000000000D+00 0.000000000000D+00
    1.786965380859D+04-2.138527870178D+00-0.000000000000D+00 3.000000000000D+00
    1.803029589844D+04 2.289628982544D+00-1.862645149231D-09 0.000000000000D+00
 4 22  7  4  1 45  0.0 1.493757590652D-04 9.094947017729D-13 5.400000000000D+03
   -2.086642822266D+04-1.658426284790D+00-9.313225746155D-10 0.000000000000D+00
    8.016947753906D+03 3.391885757446D-01-9.313225746155D-10 6.000000000000D+00
   -1.226557177734D+04 3.034855842590D+00 2.793967723846D-09 0.000000000000D+00
 5 22  7  4  1 45  0.0 9.565055370331D-05 9.094947017729D-13 5.400000000000D+03
   -5.223210449219D+03-3.046657562256D+00 1.862645149231D-09 0.000000000000D+00
    1.105059521484D+04 3.695096969604D-01-0.000000000000D+00 1.000000000000D+00
   -2.237894726562D+04 8.910388946533D-01 1.862645149231D-09 0.000000000000D+00
15 22  7  4  1 45  0.0 9.488686919212D-05-9.094947017729D-13 5.400000000000D+03
   -1.362930615234D+04 6.993722915649D-01 0.000000000000D+00 0.000000000000D+00
    1.872528710938D+04-1.292271614075D+00-9.313225746155D-10 0.000000000000D+00
   -1.065808447266D+04-3.158001899719D+00 1.862645149231D-09 0.000000000000D+00
20 22  7  4  1 45  0.0-7.389672100544D-05-9.094947017729D-13 5.400000000000D+03
    1.443747412109D+04 2.426061630249D-01 1.862645149231D-09 0.000000000000D+00
    2.100103808594D+04-9.580135345459D-02 0.000000000000D+00 2.000000000000D+00
   -4.125703125000D+02 3.615900039673D+00-9.313225746155D-10 0.000000000000D+00
 9 22  7  4  1 45  0.0 6.390083581209D-05 1.818989403546D-12 5.820000000000D+03
    5.024473632812D+03-1.017802238464D+00-0.000000000000D+00 0.000000000000D+00
    1.440117285156D+04 2.602863311768D+00-0.000000000000D+00-2.000000000000D+00
    2.044297216797D+04-1.592212677002D+00-1.862645149231D-09 0.000000000000D+00
 4 22  7  4  2 15  0.0 1.493785530329D-04 9.094947017729D-13 7.200000000000D+03
   -2.310377636719D+04-8.130836486816D-01-1.862645149231D-09 0.000000000000D+00
    8.704658691406D+03 3.840074539185D-01-9.313225746155D-10 6.000000000000D+00
   -6.398792480469D+03 3.441366195679D+00 1.862645149231D-09 0.000000000000D+00
 5 22  7  4  2 15  0.0 9.565148502588D-05 9.094947017729D-13 7.200000000000D+03
   -1.037621289062D+04-2.633955955505D+00 0.000000000000D+00 0.000000000000D+00
    1.206481152344D+04 7.336120605469D-01-9.313225746155D-10 1.000000000000D+00
   -1.993006347656D+04 1.812198638916D+00 1.862645149231D-09 0.000000000000D+00
 9 22  7  4  2 15  0.0 6.390456110239D-05 1.818989403546D-12 7.200000000000D+03
    3.648436523438D+03-5.192575454712D-01-0.000000000000D+00 0.000000000000D+00
    1.880399121094D+04 2.242310523987D+00-0.000000000000D+00-2.000000000000D+00
    1.682324267578D+04-2.403779983521D+00-9.313225746155D-10 0.000000000000D+00
15 22  7  4  2 15  0.0 9.488593786955D-05-9.094947017729D-13 7.200000000000D+03
   -1.233786572266D+04 6.944074630737D-01 0.000000000000D+00 0.000000000000D+00
    1.568818408203D+04-2.065009117126D+00-9.313225746155D-10 0.000000000000D+00
   -1.585613183594D+04-2.579991340637D+00 1.862645149231D-09 0.000000000000D+00
